[{"OBJECT_NAME":"STARLINK-4626","OBJECT_ID":"2022-105AP","EPOCH":"2026-03-09T15:47:46.768416","MEAN_MOTION":15.0126201,"ECCENTRICITY":0.00022731,"INCLINATION":97.6025,"RA_OF_ASC_NODE":310.1773,"ARG_OF_PERICENTER":61.7447,"MEAN_ANOMALY":298.4007,"EPHEMERIS_TYPE":0,"CLASSIFICATION_TYPE":"U","NORAD_CAT_ID":53685,"ELEMENT_SET_NO":999,"REV_AT_EPOCH":19323,"BSTAR":-4.978778e-6,"MEAN_MOTION_DOT":-1.22e-6,"MEAN_MOTION_DDOT":0},{"OBJECT_NAME":"COSMOS 2251 DEB","OBJECT_ID":"1993-036BYJ","EPOCH":"2026-02-27T08:25:05.077344","MEAN_MOTION":15.02778291,"ECCENTRICITY":0.0017194,"INCLINATION":74.0208,"RA_OF_ASC_NODE":84.7822,"ARG_OF_PERICENTER":181.9976,"MEAN_ANOMALY":194.0424,"EPHEMERIS_TYPE":0,"CLASSIFICATION_TYPE":"U","NORAD_CAT_ID":47116,"ELEMENT_SET_NO":999,"REV_AT_EPOCH":60660,"BSTAR":0.0017596726,"MEAN_MOTION_DOT":0.00023658,"MEAN_MOTION_DDOT":0}]
